{"type": "FeatureCollection", "features": [{"type": "Feature", "properties": {"norad_id": 49537, "name": "COSMOS 1408 DEB", "group": "cosmos-1408-debris", "lat": -45.18263162268732, "lon": -66.45492174353522, "alt_km": 154.96814788305073, "timestamp": "2025-12-02T10:50:47.544420+00:00", "meta": {"OBJECT_NAME": "COSMOS 1408 DEB", "OBJECT_ID": "1982-092AA", "EPOCH": "2025-12-01T10:29:21.651360", "MEAN_MOTION": 16.33498888, "ECCENTRICITY": 0.00127731, "INCLINATION": 82.5092, "RA_OF_ASC_NODE": 107.1368, "ARG_OF_PERICENTER": 299.8571, "MEAN_ANOMALY": 60.1455, "EPHEMERIS_TYPE": 0, "CLASSIFICATION_TYPE": "U", "NORAD_CAT_ID": 49537, "ELEMENT_SET_NO": 999, "REV_AT_EPOCH": 22403, "BSTAR": 0.00094222941, "MEAN_MOTION_DOT": 0.05878558, "MEAN_MOTION_DDOT": -1.252052e-06}, "tle": {"line1": "1 49537U 82092AA  25335.43705615  .05878558 -12521-5  94223-3 0  9994", "line2": "2 49537  82.5092 107.1368 0012773 299.8571  60.1455 16.33498888224033"}}, "geometry": {"type": "Point", "coordinates": [-66.45492174353522, -45.18263162268732]}}, {"type": "Feature", "properties": {"norad_id": 50032, "name": "COSMOS 1408 DEB", "group": "cosmos-1408-debris", "lat": 19.075565067168995, "lon": -113.53772005558113, "alt_km": 429.90639057611133, "timestamp": "2025-12-02T10:50:47.544440+00:00", "meta": {"OBJECT_NAME": "COSMOS 1408 DEB", "OBJECT_ID": "1982-092RU", "EPOCH": "2025-12-01T12:23:52.259712", "MEAN_MOTION": 15.45515791, "ECCENTRICITY": 0.00146094, "INCLINATION": 82.5648, "RA_OF_ASC_NODE": 70.0089, "ARG_OF_PERICENTER": 252.6553, "MEAN_ANOMALY": 107.3098, "EPHEMERIS_TYPE": 0, "CLASSIFICATION_TYPE": "U", "NORAD_CAT_ID": 50032, "ELEMENT_SET_NO": 999, "REV_AT_EPOCH": 22430, "BSTAR": 0.00013928653, "MEAN_MOTION_DOT": 6.746e-05, "MEAN_MOTION_DDOT": 0}, "tle": {"line1": "1 50032U 82092RU  25335.51657708  .00006746  00000+0  13929-3 0  9997", "line2": "2 50032  82.5648  70.0089 0014609 252.6553 107.3098 15.45515791224309"}}, "geometry": {"type": "Point", "coordinates": [-113.53772005558113, 19.075565067168995]}}, {"type": "Feature", "properties": {"norad_id": 50058, "name": "COSMOS 1408 DEB", "group": "cosmos-1408-debris", "lat": 55.01444464298481, "lon": 90.78372217188243, "alt_km": 371.3930167451881, "timestamp": "2025-12-02T10:50:47.544454+00:00", "meta": {"OBJECT_NAME": "COSMOS 1408 DEB", "OBJECT_ID": "1982-092SW", "EPOCH": "2025-12-01T17:42:30.577824", "MEAN_MOTION": 15.63113655, "ECCENTRICITY": 0.0016295, "INCLINATION": 82.6131, "RA_OF_ASC_NODE": 80.8464, "ARG_OF_PERICENTER": 138.1826, "MEAN_ANOMALY": 222.0681, "EPHEMERIS_TYPE": 0, "CLASSIFICATION_TYPE": "U", "NORAD_CAT_ID": 50058, "ELEMENT_SET_NO": 999, "REV_AT_EPOCH": 22632, "BSTAR": 0.00037559, "MEAN_MOTION_DOT": 0.00034537, "MEAN_MOTION_DDOT": 0}, "tle": {"line1": "1 50058U 82092SW  25335.73785391  .00034537  00000+0  37559-3 0  9993", "line2": "2 50058  82.6131  80.8464 0016295 138.1826 222.0681 15.63113655226325"}}, "geometry": {"type": "Point", "coordinates": [90.78372217188243, 55.01444464298481]}}, {"type": "Feature", "properties": {"norad_id": 50404, "name": "COSMOS 1408 DEB", "group": "cosmos-1408-debris", "lat": -68.43886776096676, "lon": 65.8276465350031, "alt_km": 420.39100545713245, "timestamp": "2025-12-02T10:50:47.544465+00:00", "meta": {"OBJECT_NAME": "COSMOS 1408 DEB", "OBJECT_ID": "1982-092ADS", "EPOCH": "2025-12-02T03:23:04.900416", "MEAN_MOTION": 15.11568017, "ECCENTRICITY": 0.0177045, "INCLINATION": 82.207, "RA_OF_ASC_NODE": 225.8658, "ARG_OF_PERICENTER": 235.6536, "MEAN_ANOMALY": 122.7837, "EPHEMERIS_TYPE": 0, "CLASSIFICATION_TYPE": "U", "NORAD_CAT_ID": 50404, "ELEMENT_SET_NO": 999, "REV_AT_EPOCH": 21033, "BSTAR": 0.0031085, "MEAN_MOTION_DOT": 0.00077873, "MEAN_MOTION_DDOT": 0}, "tle": {"line1": "1 50404U 82092ADS 25336.14102894  .00077873  00000+0  31085-2 0  9992", "line2": "2 50404  82.2070 225.8658 0177045 235.6536 122.7837 15.11568017210338"}}, "geometry": {"type": "Point", "coordinates": [65.8276465350031, -68.43886776096676]}}, {"type": "Feature", "properties": {"norad_id": 50621, "name": "COSMOS 1408 DEB", "group": "cosmos-1408-debris", "lat": -14.420979527800387, "lon": 82.9596240335183, "alt_km": 422.30947087632103, "timestamp": "2025-12-02T10:50:47.544476+00:00", "meta": {"OBJECT_NAME": "COSMOS 1408 DEB", "OBJECT_ID": "1982-092ALR", "EPOCH": "2025-12-01T08:40:02.733600", "MEAN_MOTION": 15.55763582, "ECCENTRICITY": 0.00289111, "INCLINATION": 82.5699, "RA_OF_ASC_NODE": 86.0169, "ARG_OF_PERICENTER": 194.2516, "MEAN_ANOMALY": 165.7927, "EPHEMERIS_TYPE": 0, "CLASSIFICATION_TYPE": "U", "NORAD_CAT_ID": 50621, "ELEMENT_SET_NO": 999, "REV_AT_EPOCH": 22073, "BSTAR": 0.00047506619, "MEAN_MOTION_DOT": 0.00033485, "MEAN_MOTION_DDOT": 0}, "tle": {"line1": "1 50621U 82092ALR 25335.36114275  .00033485  00000+0  47507-3 0  9990", "line2": "2 50621  82.5699  86.0169 0028911 194.2516 165.7927 15.55763582220732"}}, "geometry": {"type": "Point", "coordinates": [82.9596240335183, -14.420979527800387]}}]}